[{"OBJECT_NAME":"OBJECT J","OBJECT_ID":"2024-092J","EPOCH":"2026-03-09T22:08:58.299072","MEAN_MOTION":14.31802287,"ECCENTRICITY":0.00130036,"INCLINATION":98.6556,"RA_OF_ASC_NODE":188.1438,"ARG_OF_PERICENTER":138.752,"MEAN_ANOMALY":221.4648,"EPHEMERIS_TYPE":0,"CLASSIFICATION_TYPE":"U","NORAD_CAT_ID":59781,"ELEMENT_SET_NO":999,"REV_AT_EPOCH":9469,"BSTAR":0.00013473254,"MEAN_MOTION_DOT":3.16e-6,"MEAN_MOTION_DDOT":0},{"OBJECT_NAME":"COSMOS 1680","OBJECT_ID":"1985-079A","EPOCH":"2026-03-09T15:39:49.865472","MEAN_MOTION":14.34132536,"ECCENTRICITY":0.00154059,"INCLINATION":74.0541,"RA_OF_ASC_NODE":146.795,"ARG_OF_PERICENTER":340.7467,"MEAN_ANOMALY":19.3101,"EPHEMERIS_TYPE":0,"CLASSIFICATION_TYPE":"U","NORAD_CAT_ID":16011,"ELEMENT_SET_NO":999,"REV_AT_EPOCH":11753,"BSTAR":6.7390441e-5,"MEAN_MOTION_DOT":1.63e-6,"MEAN_MOTION_DDOT":0}]
